BEIDOU-2 IGSO-1 (C06)   
1 36828U 10036A   26256.66970756 -.00000130  00000+0  00000+0 0  9997
2 36828  54.3037 162.1610 0058541 217.4777 320.7749  1.00289463 58981
BEIDOU-2 G4 (C04)       
1 37210U 10057A   26272.85197535 -.00000107  00000+0  00000+0 0  9995
2 37210   3.9000  68.1836 0008745 180.2985 226.8424  1.00273284 58341
BEIDOU-2 IGSO-2 (C07)   
1 37256U 10068A   26270.62186336 -.00000178  00000+0  00000+0 0  9995
2 37256  47.3663 270.5486 0057204 216.5025 208.0151  1.00248472 57822
BEIDOU-2 IGSO-3 (C08)   
1 37384U 11013A   26271.78096157 -.00000176  00000+0  00000+0 0  9995
2 37384  62.5611  39.1867 0034762 184.3588 171.9277  1.00288161 56698
BEIDOU-2 IGSO-4 (C09)   
1 37763U 11038A   26270.55809838 -.00000039  00000+0  00000+0 0  9993
2 37763  54.6021 164.7629 0160756 230.8119 265.6470  1.00265441 55676
BEIDOU-2 IGSO-5 (C10)   
1 37948U 11073A   26270.97961485 -.00000126  00000+0  00000+0 0  9997
2 37948  47.4986 270.2599 0116511 224.3210 320.7744  1.00274862 54167
BEIDOU-2 G5 (C05)       
1 38091U 12008A   26272.80806726  .00000061  00000+0  00000+0 0  9993
2 38091   3.8275  68.9196 0007396 234.0942  55.1471  1.00273139 53418
BEIDOU-2 M3 (C11)       
1 38250U 12018A   26271.82152233 -.00000017  00000+0  00000+0 0  9991
2 38250  55.6653 301.3739 0023582 273.7723  86.0138  1.86230147 97876
BEIDOU-2 M4 (C12)       
1 38251U 12018B   26272.82788867 -.00000017  00000+0  00000+0 0  9991
2 38251  55.5642 300.5453 0014818 274.0970  85.7841  1.86229796 97895
BEIDOU-2 M6 (C14)       
1 38775U 12050B   26270.92619030 -.00000006  00000+0  00000+0 0  9990
2 38775  56.6398  59.5039 0010653   3.0312 356.9772  1.86230753 95226
BEIDOU-2 G6 (C02)       
1 38953U 12059A   26272.86111483 -.00000171  00000+0  00000+0 0  9994
2 38953   4.6792  72.3203 0006602 321.0810   9.2490  1.00274427 50954
BEIDOU-3S IGSO-1S (C31) 
1 40549U 15019A   26269.48543381 -.00000153  00000+0  00000+0 0  9997
2 40549  49.0033 294.2333 0038963 201.5282 140.7190  1.00286165 42083
BEIDOU-3S M2S (C58)     
1 40748U 15037A   26272.49156906 -.00000015  00000+0  00000+0 0  9993
2 40748  54.7756 298.4461 0012159 262.5108  97.3990  1.86232189 76061
BEIDOU-3S M1S (C57)     
1 40749U 15037B   26272.14934017 -.00000015  00000+0  00000+0 0  9993
2 40749  54.7728 298.4435 0001809  34.7150 325.3463  1.86254850 76066
BEIDOU-3S IGSO-2S (C56) 
1 40938U 15053A   26272.42009758 -.00000130  00000+0  00000+0 0  9995
2 40938  49.0695 257.5329 0065678 192.3915 165.7486  1.00280332 40396
BEIDOU-2 IGSO-6 (C13)   
1 41434U 16021A   26271.90912337 -.00000159  00000+0  00000+0 0  9992
2 41434  60.3773  37.0178 0062160 228.6044 165.9667  1.00278896 38520
BEIDOU-2 G7 (C03)       
1 41586U 16037A   26272.86916412 -.00000349  00000+0  00000+0 0  9992
2 41586   1.9728  69.6660 0004417 350.5087  11.8646  1.00266640  7941
BEIDOU-3 M1 (C19)       
1 43001U 17069A   26271.76538648 -.00000007  00000+0  00000+0 0  9992
2 43001  56.7870  59.6797 0007158 319.5197  40.4274  1.86231032 60533
BEIDOU-3 M2 (C20)       
1 43002U 17069B   26270.09352031 -.00000003  00000+0  00000+0 0  9994
2 43002  56.7848  59.7700 0005768   1.0075 358.9987  1.86230890 60491
BEIDOU-3 M7 (C27)       
1 43107U 18003A   26271.98382590 -.00000017  00000+0  00000+0 0  9996
2 43107  54.2327 298.6865 0002897 103.4749 256.6072  1.86228289 59286
BEIDOU-3 M8 (C28)       
1 43108U 18003B   26272.46392564 -.00000017  00000+0  00000+0 0  9993
2 43108  54.2250 298.6503 0004564 264.8668  95.1289  1.86231218 59301
BEIDOU-3 M4 (C22)       
1 43207U 18018A   26271.29674115 -.00000006  00000+0  00000+0 0  9992
2 43207  56.7455  59.7556 0005500  44.4745 315.5711  1.86231005 58669
BEIDOU-3 M3 (C21)       
1 43208U 18018B   26271.90019572 -.00000007  00000+0  00000+0 0  9992
2 43208  56.7459  59.7398 0005187 343.3629  16.6203  1.86231010 58673
BEIDOU-3 M9 (C29)       
1 43245U 18029A   26271.58181486 -.00000013  00000+0  00000+0 0  9990
2 43245  54.0984 296.3227 0001786 240.7155 119.3146  1.86228328 57824
BEIDOU-3 M10 (C30)      
1 43246U 18029B   26272.58955213 -.00000014  00000+0  00000+0 0  9990
2 43246  54.0949 296.3139 0002842  10.4485 349.6012  1.86229343 57828
BEIDOU-2 IGSO-7 (C16)   
1 43539U 18057A   26271.48757381 -.00000087  00000+0  00000+0 0  9990
2 43539  55.2111 162.1760 0107737 236.3604 256.8668  1.00272479 30166
BEIDOU-3 M5 (C23)       
1 43581U 18062A   26272.27661245  .00000037  00000+0  00000+0 0  9998
2 43581  54.0811 178.7674 0003559 319.1247  40.9072  1.86228751 55575
BEIDOU-3 M6 (C24)       
1 43582U 18062B   26271.06658087  .00000038  00000+0  00000+0 0  9996
2 43582  54.0808 178.7979 0006830  35.4076 324.6912  1.86228113 55558
BEIDOU-3 M12 (C26)      
1 43602U 18067A   26272.07910686  .00000038  00000+0  00000+0 0  9992
2 43602  54.1771 177.5190 0009097  39.2326 320.8939  1.86227678 55058
BEIDOU-3 M11 (C25)      
1 43603U 18067B   26271.14051766  .00000039  00000+0  00000+0 0  9996
2 43603  54.1743 177.5144 0005479  30.0206 330.0676  1.86227216 55063
BEIDOU-3 M13 (C32)      
1 43622U 18072A   26271.63121859 -.00000007  00000+0  00000+0 0  9994
2 43622  56.7197  59.2527 0003974 322.8632  37.1097  1.86231115 54580
BEIDOU-3 M14 (C33)      
1 43623U 18072B   26272.57054347 -.00000008  00000+0  00000+0 0  9997
2 43623  56.7222  59.2163 0003289  24.1166 335.8981  1.86231130 54597
BEIDOU-3 M16 (C35)      
1 43647U 18078A   26272.18747837 -.00000014  00000+0  00000+0 0  9996
2 43647  53.9937 296.3291 0006144  29.8009 330.2795  1.86232261 54095
BEIDOU-3 M15 (C34)      
1 43648U 18078B   26271.78153488 -.00000014  00000+0  00000+0 0  9995
2 43648  53.9898 296.3435 0002708  32.4867 327.5770  1.86227368 54102
BEIDOU-3 G1 (C59)       
1 43683U 18085A   26272.82546281 -.00000104  00000+0  00000+0 0  9995
2 43683   2.6511  94.4167 0005420  26.8558 344.5655  1.00271266 29117
BEIDOU-3 M17 (C36)      
1 43706U 18093A   26271.08911501  .00000038  00000+0  00000+0 0  9993
2 43706  54.1645 178.8078 0008035 305.0938 202.3005  1.86228301 53450
BEIDOU-3 M18 (C37)      
1 43707U 18093B   26271.27058954  .00000038  00000+0  00000+0 0  9999
2 43707  54.1655 178.7938 0007232 342.9864  17.0440  1.86226653 53454
BEIDOU-3 IGSO-1 (C38)   
1 44204U 19023A   26271.65228929 -.00000211  00000+0  00000+0 0  9993
2 44204  58.8427  36.5943 0028021 223.8957  99.8991  1.00261219  8240
BEIDOU-2 G8 (C01)       
1 44231U 19027A   26272.85719549 -.00000243  00000+0  00000+0 0  9998
2 44231   1.9168  74.2401 0008824 276.2026 111.2569  1.00275932 27133
BEIDOU-3 IGSO-2 (C39)   
1 44337U 19035A   26272.50692397 -.00000107  00000+0  00000+0 0  9996
2 44337  55.2492 157.9464 0038557 210.4122 302.0147  1.00267980 26712
BEIDOU-3 M24 (C46)      
1 44542U 19061A   26266.50572373 -.00000008  00000+0  00000+0 0  9997
2 44542  54.4306 179.4090 0020747  95.6918 264.5686  1.86175926 47622
BEIDOU-3 M23 (C45)      
1 44543U 19061B   26270.70495738  .00000036  00000+0  00000+0 0  9994
2 44543  54.3911 179.2413 0006079   7.4193 199.3086  1.86227727 47704
BEIDOU-3 IGSO-3 (C40)   
1 44709U 19073A   26272.42557234 -.00000168  00000+0  00000+0 0  9999
2 44709  54.6268 279.7604 0046584 198.5138 161.3175  1.00258348 25501
BEIDOU-3 M22 (C44)      
1 44793U 19078A   26271.17892248 -.00000014  00000+0  00000+0 0  9995
2 44793  53.8399 296.1946 0004867  38.8470 321.2374  1.86227454 46560
BEIDOU-3 M21 (C43)      
1 44794U 19078B   26271.85553266 -.00000014  00000+0  00000+0 0  9995
2 44794  53.8127 296.1294 0002793  25.5338 334.5261  1.86227910 46589
BEIDOU-3 M19 (C41)      
1 44864U 19090A   26272.63340284 -.00000008  00000+0  00000+0 0  9991
2 44864  56.6549  59.3453 0015849 291.4990  68.1666  1.86231255 46177
BEIDOU-3 M20 (C42)      
1 44865U 19090B   26272.51101645 -.00000008  00000+0  00000+0 0  9995
2 44865  56.6564  59.3842 0013054 306.6565  60.5261  1.86231278 46161
BEIDOU-3 G2 (C60)       
1 45344U 20017A   26272.86089929 -.00000136  00000+0  00000+0 0  9999
2 45344   2.6160  48.6356 0002470 146.5436 203.4323  1.00270816 24302
BEIDOU-3 G3 (C61)       
1 45807U 20040A   26272.86916409 -.00000350  00000+0  00000+0 0  9999
2 45807   2.6979  67.3621 0002951 279.4823  85.2761  1.00270834 23128
BEIDOU-3 G4 (C62)       
1 56564U 23066A   26272.85632881 -.00000277  00000+0  00000+0 0  9998
2 56564   0.4437   2.0715 0005802 208.9908 245.8809  1.00274416 12444
BEIDOU-3 M28 (C50)      
1 58654U 23207A   26271.39513807 -.00000010  00000+0  00000+0 0  9996
2 58654  55.8494  58.8281 0000219  46.1068 313.8962  1.86229538 18762
BEIDOU-3 M26 (C48)      
1 58655U 23207B   26270.11874846 -.00000007  00000+0  00000+0 0  9995
2 58655  55.8503  58.8576 0001332 243.0628 116.9285  1.86229468 18726
BEIDOU-3 M25 (C47)      
1 61186U 24168B   26272.63830242 -.00000017  00000+0  00000+0 0  9997
2 61186  54.3780 298.6026 0004774 289.7213  77.2950  1.86229893 13730
BEIDOU-3 M27 (C49)      
1 61187U 24168C   26271.47611800 -.00000016  00000+0  00000+0 0  9995
2 61187  54.3743 298.6257 0001162 319.2671 123.6247  1.86230092 11186
