GSAT0101 (GALILEO-PFM)  
1 37846U 11060A   26216.53495880 -.00000079  00000+0  00000+0 0  9990
2 37846  56.9761 340.4517 0001558  67.0423 292.9868  1.70475616 91943
GSAT0102 (GALILEO-FM2)  
1 37847U 11060B   26216.81001851 -.00000080  00000+0  00000+0 0  9995
2 37847  56.9768 340.4447 0001738 352.0053 222.5010  1.70475871 91951
GSAT0103 (GALILEO-FM3)  
1 38857U 12055A   26215.98935071  .00000000  00000+0  00000+0 0  9990
2 38857  55.8340 100.2331 0002980 313.5852  46.4658  1.70473393 85827
GSAT0201 (GALILEO 5)    
1 40128U 14050A   26216.38660422  .00000000  00000+0  00000+0 0  9991
2 40128  48.8235 271.4562 1681174 181.2707 178.2918  1.85519699 79216
GSAT0202 (GALILEO 6)    
1 40129U 14050B   26216.10299114  .00000002  00000+0  00000+0 0  9990
2 40129  48.8410 270.5539 1682471 181.9763 177.3144  1.85520313 81372
GSAT0203 (GALILEO 7)    
1 40544U 15017A   26215.72600531 -.00000079  00000+0  00000+0 0  9996
2 40544  56.7686 340.3016 0003326 250.6725 109.3040  1.70476279 70013
GSAT0204 (GALILEO 8)    
1 40545U 15017B   26216.56852006 -.00000080  00000+0  00000+0 0  9998
2 40545  56.7763 340.2974 0003524 234.6687 125.3113  1.70475726 33071
GSAT0206 (GALILEO 10)   
1 40890U 15045B   26215.97048008  .00000081  00000+0  00000+0 0  9995
2 40890  54.9354 220.2845 0002181 332.6906  27.3145  1.70473350 67855
GSAT0209 (GALILEO 12)   
1 41174U 15079A   26213.79267389  .00000003  00000+0  00000+0 0  9995
2 41174  55.8535 100.0103 0004346 356.8933   3.1843  1.70473736 65557
GSAT0208 (GALILEO 11)   
1 41175U 15079B   26215.18621139  .00000003  00000+0  00000+0 0  9998
2 41175  55.8531  99.9689 0003973   5.2420 354.8408  1.70473501 65991
GSAT0211 (GALILEO 14)   
1 41549U 16030A   26216.48278111  .00000083  00000+0  00000+0 0  9991
2 41549  55.0864 220.3659 0003635 321.0257  38.9659  1.70473446 63495
GSAT0210 (GALILEO 13)   
1 41550U 16030B   26216.73999655  .00000084  00000+0  00000+0 0  9995
2 41550  55.0847 220.3570 0004662 249.3267 110.6417  1.70473720 63499
GSAT0207 (GALILEO 15)   
1 41859U 16069A   26217.01882350 -.00000006  00000+0  00000+0 0  9999
2 41859  55.5273  99.7343 0003993 346.9552  13.1064  1.70473524 60238
GSAT0212 (GALILEO 16)   
1 41860U 16069B   26211.59294728 -.00000006  00000+0  00000+0 0  9994
2 41860  55.5213  99.8796 0004469  22.8001 337.2934  1.70473794 60397
GSAT0213 (GALILEO 17)   
1 41861U 16069C   26216.06613911 -.00000001  00000+0  00000+0 0  9996
2 41861  55.5264  99.7636 0003584 322.2844  37.7662  1.70474200 60332
GSAT0214 (GALILEO 18)   
1 41862U 16069D   26216.21246694 -.00000002  00000+0  00000+0 0  9995
2 41862  55.5234  99.7522 0002855 339.2506  20.8130  1.70473733 60464
GSAT0215 (GALILEO 19)   
1 43055U 17079A   26215.52856743  .00000080  00000+0  00000+0 0  9993
2 43055  55.0639 220.2035 0003783 272.0873  87.8854  1.70474184 53791
GSAT0216 (GALILEO 20)   
1 43056U 17079B   26210.54048316  .00000080  00000+0  00000+0 0  9990
2 43056  55.0654 220.3407 0004991 279.6092  80.3696  1.70474452 53724
GSAT0217 (GALILEO 21)   
1 43057U 17079C   26214.28075665  .00000078  00000+0  00000+0 0  9990
2 43057  55.0626 220.2355 0004258 291.9902  67.9813  1.70474265 53777
GSAT0218 (GALILEO 22)   
1 43058U 17079D   26216.26058223  .00000082  00000+0  00000+0 0  9997
2 43058  55.0625 220.1786 0005474 276.8699  83.0848  1.70474225 53830
GSAT0221 (GALILEO 25)   
1 43564U 18060A   26216.75141270 -.00000080  00000+0  00000+0 0  9998
2 43564  57.1512 340.4707 0003163 274.6744  85.3021  1.70476205 49999
GSAT0222 (GALILEO 26)   
1 43565U 18060B   26216.38455438 -.00000079  00000+0  00000+0 0  9990
2 43565  57.1541 340.4843 0003569 235.9286 124.0501  1.70475928 50036
GSAT0219 (GALILEO 23)   
1 43566U 18060C   26216.01879937 -.00000078  00000+0  00000+0 0  9994
2 43566  57.1541 340.4957 0002196 281.4197  78.5680  1.70476210 50008
GSAT0220 (GALILEO 24)   
1 43567U 18060D   26216.23981631 -.00000079  00000+0  00000+0 0  9995
2 43567  57.1538 340.4905 0002623 275.9470  84.0356  1.70475962 49996
GSAT0223 (GALILEO 27)   
1 49809U 21116A   26216.08897993 -.00000079  00000+0  00000+0 0  9996
2 49809  57.1426 340.3834 0002959 204.6212 153.6642  1.70476196 28990
GSAT0224 (GALILEO 28)   
1 49810U 21116B   26217.08740637 -.00000080  00000+0  00000+0 0  9993
2 49810  57.1413 340.3552 0002440 196.7917 166.8877  1.70476207 29049
GSAT0225 (GALILEO 29)   
1 59598U 24079A   26216.23416352 -.00000002  00000+0  00000+0 0  9992
2 59598  55.1481  99.7373 0000369  86.0787 107.1229  1.70473832 14130
GSAT0227 (GALILEO 30)   
1 59600U 24079C   26215.51637195  .00000001  00000+0  00000+0 0  9994
2 59600  55.1426  99.7551 0003519  79.8439 280.2730  1.70473848 14176
GSAT0232 (GALILEO 32)   
1 61182U 24167A   26217.17665392  .00000085  00000+0  00000+0 0  9996
2 61182  55.1757 219.9696 0006408 232.8803 281.8309  1.70473756 11717
GSAT0226 (GALILEO 31)   
1 61183U 24167B   26216.22652905  .00000082  00000+0  00000+0 0  9995
2 61183  55.1747 220.0028 0003179 238.0593 144.8710  1.70473805 11679
GSAT0233 (GALILEO 33)   
1 67160U 25302A   26216.58609674 -.00000005  00000+0  00000+0 0  9998
2 67160  54.3634 100.7520 0001604 143.2041 196.9359  1.70473896  3941
GSAT0234 (GALILEO 34)   
1 67162U 25302C   26215.45009964  .00000000  00000+0  00000+0 0  9995
2 67162  54.3659 100.7834 0001322 355.4638 187.5821  1.70474024  3982
