COSMOS 2433 (720)       
1 32275U 07052A   26277.72192303 -.00000011  00000+0  00000+0 0  9995
2 32275  65.5095 312.2417 0005921 232.2823 127.7286  2.13104051147394
COSMOS 2434 (721)       
1 32393U 07065A   26278.14892152 -.00000023  00000+0  00000+0 0  9999
2 32393  64.3176 188.2100 0002320  53.4697 163.3849  2.13101222146111
COSMOS 2436 (723)       
1 32395U 07065C   26278.34996397 -.00000024  00000+0  00000+0 0  9990
2 32395  64.3263 188.2766 0017516   2.5275 140.3723  2.13099862146075
COSMOS 2456 (730)       
1 36111U 09070A   26275.77866545  .00000032  00000+0  00000+0 0  9991
2 36111  65.0806  67.3066 0001327 338.6413  18.5871  2.13103500130715
COSMOS 2457 (733)       
1 36112U 09070B   26278.93318065  .00000024  00000+0  00000+0 0  9993
2 36112  65.0682  67.0409 0005912 136.3501 247.3129  2.13100729130797
COSMOS 2460 (732)       
1 36402U 10007C   26265.40205623 -.00000008  00000+0  00000+0 0  9993
2 36402  65.3592 311.1726 0002578 222.5647 222.5420  2.13101986128805
COSMOS 2476 (744)       
1 37867U 11064A   26277.77464690  .00000037  00000+0  00000+0 0  9998
2 37867  65.3389  69.1761 0023009 230.5477 126.2457  2.13103540116092
COSMOS 2477 (745)       
1 37868U 11064B   26278.49283889  .00000033  00000+0  00000+0 0  9994
2 37868  65.3458  69.2324 0019905 230.4659 137.3015  2.13102601116110
COSMOS 2475 (743)       
1 37869U 11064C   26267.52397483  .00000043  00000+0  00000+0 0  9994
2 37869  65.3462  69.6239 0024905 245.5374 301.9912  2.13101751115885
COSMOS 2485 (747)       
1 39155U 13019A   26278.18584198  .00000037  00000+0  00000+0 0  9994
2 39155  65.4881  69.9172 0023562 225.9763 133.8425  2.13102851104625
COSMOS 2492 (754)       
1 39620U 14012A   26278.61403156 -.00000008  00000+0  00000+0 0  9996
2 39620  65.2280 310.1763 0012492 306.1167  53.8319  2.13103095 97591
COSMOS 2500 (755)       
1 40001U 14032A   26277.84440829 -.00000007  00000+0  00000+0 0  9994
2 40001  65.1635 309.9409 0009536 208.4342 151.5766  2.13101333 95791
COSMOS 2501 (702K)      
1 40315U 14075A   26278.57667553 -.00000024  00000+0  00000+0 0  9994
2 40315  63.6155 186.5537 0021762 208.7456 151.1693  2.13101197 92200
COSMOS 2514 (751)       
1 41330U 16008A   26278.56129362 -.00000007  00000+0  00000+0 0  9991
2 41330  64.9514 309.2108 0013752 212.9894 146.9876  2.13102612 82973
COSMOS 2522 (752)       
1 42939U 17055A   26277.92955310 -.00000022  00000+0  00000+0 0  9996
2 42939  64.0782 188.1522 0008661 233.3998 126.5539  2.13101879 70315
COSMOS 2527 (756)       
1 43508U 18053A   26278.36113433  .00000037  00000+0  00000+0 0  9994
2 43508  65.6455  70.2367 0007549 214.0512 145.9132  2.13101882 64627
COSMOS 2529 (757)       
1 43687U 18086A   26278.45708119 -.00000025  00000+0  00000+0 0  9997
2 43687  64.2946 188.8744 0009595 253.4586 106.4673  2.13101848 61633
COSMOS 2534 (758)       
1 44299U 19030A   26277.06913633 -.00000014  00000+0  00000+0 0  9990
2 44299  64.3681 188.9537 0010847 276.7975 232.9843  2.13102037 57240
COSMOS 2544 (759)       
1 44850U 19088A   26278.77465995  .00000034  00000+0  00000+0 0  9999
2 44850  65.6337  70.0445 0012410 244.2971 115.5864  2.13102701 53072
COSMOS 2545 (760)       
1 45358U 20018A   26278.03104250 -.00000007  00000+0  00000+0 0  9992
2 45358  64.2840 308.5515 0012261 238.4233 121.5184  2.13102417 51004
COSMOS 2547 (705K)      
1 46805U 20075A   26278.22173090 -.00000024  00000+0  00000+0 0  9991
2 46805  64.5994 188.8065 0007922 233.7363 126.2224  2.13099652 46258
COSMOS 2557 (706K)      
1 52984U 22075A   26277.91576981 -.00000011  00000+0  00000+0 0  9995
2 52984  64.2287 310.6130 0013027 270.2314  89.6820  2.13101961 33053
COSMOS 2559 (707K)      
1 54031U 22130A   26278.20492750 -.00000011  00000+0  00000+0 0  9996
2 54031  64.2011 310.6817 0013360 190.3235 169.7118  2.13101532 31039
COSMOS 2564 (761)       
1 54377U 22161A   26278.51715584 -.00000025  00000+0  00000+0 0  9995
2 54377  64.7412 189.0532 0010348 214.7046 145.2589  2.13101966 29981
COSMOS 2569 (703K)      
1 57517U 23114A   26278.05990253  .00000035  00000+0  00000+0 0  9990
2 57517  65.3717  68.9197 0008790 286.3053  73.6101  2.13102459 24604
COSMOS 2584 (704K)      
1 63130U 25042A   26275.60017059  .00000035  00000+0  00000+0 0  9992
2 63130  65.1526  69.1546 0006783 203.8155 156.1648  2.13103208 12339
COSMOS 2596 (708K)      
1 65590U 25206B   26278.33262937 -.00000011  00000+0  00000+0 0  9991
2 65590  64.5652 311.1433 0012798 301.4350 110.0365  2.13100496  8262
