GPS BIIR-5  (PRN 22)    
1 26407U 00040A   26277.20229534 -.00000015  00000+0  00000+0 0  9999
2 26407  54.8341 210.8364 0117201 304.2454 212.1215  2.00558425192135
GPS BIIR-8  (PRN 16)    
1 27663U 03005A   26277.82300736 -.00000024  00000+0  00000+0 0  9990
2 27663  54.8636 210.6170 0151364  53.8800 326.4690  2.00554529173518
GPS BIIR-11 (PRN 19)    
1 28190U 04009A   26277.11352288  .00000016  00000+0  00000+0 0  9992
2 28190  54.7470 271.2761 0118367 177.0571 205.6740  2.00572810165134
GPS BIIR-13 (PRN 02)    
1 28474U 04045A   26277.48841309 -.00000054  00000+0  00000+0 0  9997
2 28474  55.0652 320.4857 0173011 319.1979  37.4799  2.00560510160613
GPS BIIRM-1 (PRN 17)    
1 28874U 05038A   26277.12262648  .00000018  00000+0  00000+0 0  9997
2 28874  54.7977 268.7715 0128658 298.0547 119.9728  2.00558079154026
GPS BIIRM-2 (PRN 31)    
1 29486U 06042A   26277.42289278  .00000013  00000+0  00000+0 0  9999
2 29486  54.7176 146.9988 0109307  57.8289 117.5996  2.00564385146580
GPS BIIRM-3 (PRN 12)    
1 29601U 06052A   26277.60833478 -.00000021  00000+0  00000+0 0  9996
2 29601  54.9191 209.6729 0086073  91.1813 269.8037  2.00564039145601
GPS BIIRM-4 (PRN 15)    
1 32260U 07047A   26277.91659083  .00000021  00000+0  00000+0 0  9997
2 32260  54.1840  75.5469 0168291  89.7939 272.1568  2.00575036139018
GPS BIIRM-5 (PRN 29)    
1 32384U 07062A   26277.49973854  .00000014  00000+0  00000+0 0  9991
2 32384  54.9524 269.7487 0035860 170.3173  18.9798  2.00565889137701
GPS BIIRM-6 (PRN 07)    
1 32711U 08012A   26277.82576007  .00000017  00000+0  00000+0 0  9990
2 32711  54.5067 145.5422 0211654 248.7017 109.1066  2.00553320135950
GPS BIIRM-8 (PRN 05)    
1 35752U 09043A   26277.97596646 -.00000084  00000+0  00000+0 0  9995
2 35752  56.2728  23.1489 0050739  86.4901  33.6942  2.00575661125561
GPS BIIF-1  (PRN 25)    
1 36585U 10022A   26277.12451416 -.00000018  00000+0  00000+0 0  9998
2 36585  54.2552 204.1764 0116785  56.0456 293.7306  2.00610892119773
GPS BIIF-3  (PRN 24)    
1 38833U 12053A   26277.00641053  .00000020  00000+0  00000+0 0  9999
2 38833  53.6011 139.1369 0186758  67.8340 294.2224  2.00557204101628
GPS BIIF-4  (PRN 27)    
1 39166U 13023A   26276.87330857  .00000020  00000+0  00000+0 0  9998
2 39166  54.4281 264.5378 0143134  51.1975 310.0740  2.00563013 98068
GPS BIIF-5  (PRN 30)    
1 39533U 14008A   26277.87176352  .00000017  00000+0  00000+0 0  9995
2 39533  53.6660 144.8421 0083569 231.5387 127.7903  2.00566856 91888
GPS BIIF-6  (PRN 06)    
1 39741U 14026A   26277.65374367 -.00000064  00000+0  00000+0 0  9991
2 39741  56.4369 327.2502 0040072 323.9719  35.8203  2.00553003 90735
GPS BIIF-7  (PRN 09)    
1 40105U 14045A   26276.74485430  .00000035  00000+0  00000+0 0  9998
2 40105  55.4323  84.1416 0036636 120.6655 239.7270  2.00565281 88259
GPS BIIF-8  (PRN 03)    
1 40294U 14068A   26277.61391621 -.00000076  00000+0  00000+0 0  9993
2 40294  57.0574  26.7494 0066604  73.9510 286.7917  2.00558085 87400
GPS BIIF-9  (PRN 26)    
1 40534U 15013A   26277.74756686 -.00000029  00000+0  00000+0 0  9999
2 40534  53.1533 199.6500 0114072  41.6205 319.2527  2.00569467 84023
GPS BIIF-10 (PRN 08)    
1 40730U 15033A   26277.91353325  .00000007  00000+0  00000+0 0  9996
2 40730  53.9060 262.5546 0118290  30.7739 329.9113  2.00550303 82195
GPS BIIF-11 (PRN 10)    
1 41019U 15062A   26277.46516578 -.00000075  00000+0  00000+0 0  9996
2 41019  57.0280  26.6113 0117027 231.3752 127.5862  2.00566740 80020
GPS BIIF-12 (PRN 32)    
1 41328U 16007A   26277.55317662  .00000039  00000+0  00000+0 0  9991
2 41328  55.6001  85.1247 0098266 247.3221 111.6682  2.00571428 78038
GPS BIII-1  (PRN 04)    
1 43873U 18109A   26277.94203522  .00000044  00000+0  00000+0 0  9991
2 43873  55.7576  87.8578 0040526 196.2682 336.1056  2.00565529 57275
GPS BIII-2  (PRN 18)    
1 44506U 19056A   26277.41036882 -.00000064  00000+0  00000+0 0  9995
2 44506  55.5763 326.7954 0066417 200.7348 213.8224  2.00571517 52261
GPS BIII-3  (PRN 23)    
1 45854U 20041A   26277.50340698 -.00000078  00000+0  00000+0 0  9996
2 45854  56.7353  24.7114 0068804 206.6400 209.3520  2.00572801 46231
GPS BIII-4  (PRN 14)    
1 46826U 20078A   26277.98087965 -.00000029  00000+0  00000+0 0  9999
2 46826  53.9631 206.3300 0076576 208.4398 171.4946  2.00564852 43713
GPS BIII-5  (PRN 11)    
1 48859U 21054A   26277.95334958 -.00000068  00000+0  00000+0 0  9999
2 48859  55.1139 328.0412 0029098 231.8270 313.9392  2.00562229 38954
GPS BIII-6  (PRN 28)    
1 55268U 23009A   26276.89040128  .00000016  00000+0  00000+0 0  9990
2 55268  55.1308 144.2429 0005691 330.4244 207.4091  2.00563647 27428
GPS BIII-7  (PRN 01)    
1 62339U 24242A   26277.51851745 -.00000071  00000+0  00000+0 0  9994
2 62339  54.7940 329.7434 0019999   2.3700 351.8569  2.00555189 13449
GPS BIII-8  (PRN 21)    
1 64202U 25116A   26260.32003325 -.00000081  00000+0  00000+0 0  9991
2 64202  55.2945  27.4305 0009051 334.7424  24.4974  2.00569444  9710
GPS BIII-9  (PRN 20)    
1 67588U 26017A   26277.38282756  .00000037  00000+0  00000+0 0  9993
2 67588  55.1669  84.3748 0020849 264.5960  95.1976  2.00568192433805
GPS BIII-10 (PRN 13)    
1 68791U 26087A   26264.30264354 -.00000012  00000+0  00000+0 0  9993
2 68791  54.9540 203.9902 0021764 102.4142  19.8323  2.00578319  2765
