QZS-1 (MICHIBIKI-1)     
1 37158U 10045A   26270.76405486  .00000040  00000+0  00000+0 0  9993
2 37158  44.3578 115.2667 0007497  60.4759 119.5462  0.87715495 57290
QZS-2 (MICHIBIKI-2)     
1 42738U 17028A   26272.49186332 -.00000159  00000+0  00000+0 0  9991
2 42738  39.2776 241.6191 0748172 270.6506 173.7461  1.00256861  8678
QZS-3 (MICHIBIKI-3)     
1 42917U 17048A   26272.42607760 -.00000344  00000+0  00000+0 0  9994
2 42917   0.0755 129.9109 0001564  56.0257 102.6056  1.00265581 33301
QZS-4 (MICHIBIKI-4)     
1 42965U 17062A   26272.54442544 -.00000291  00000+0  00000+0 0  9994
2 42965  40.0392 342.1527 0750094 269.9642  92.6859  1.00269574 32854
QZS-1R (MICHIBIKI-1R)   
1 49336U 21096A   26272.83991546 -.00000206  00000+0  00000+0 0  9994
2 49336  37.6790  78.0379 0744841 270.1329  97.5698  1.00281811 18066
QZS-6 (MICHIBIKI-6)     
1 62876U 25023A   26272.86371097 -.00000230  00000+0  00000+0 0  9995
2 62876   0.0214 287.5129 0002184 278.5424 204.0666  1.00270559  5995
